IRIDIUM 57 [-]          
1 25273U 98019B   24115.60117545  .00000995  00000+0  34161-3 0  9998
2 25273  86.3937 320.5838 0002161  88.3994 271.7449 14.35167614364732
IRIDIUM 63 [-]          
1 25286U 98021B   24115.85440140  .00001525  00000+0  52169-3 0  9990
2 25286  86.3962 257.3462 0002062  97.7640 262.3791 14.35707252364077
IRIDIUM 69 [-]          
1 25319U 98026A   24115.52338872  .00001807  00000+0  56897-3 0  9999
2 25319  86.3934 272.0438 0001934  22.6689 337.4595 14.39918111362792
IRIDIUM 71 [-]          
1 25320U 98026B   24115.46571101  .00001755  00000+0  54863-3 0  9991
2 25320  86.3939 266.8363 0003598  60.2275 299.9282 14.40240341363302
IRIDIUM 73 [-]          
1 25344U 98032C   24115.83801554  .00002065  00000+0  52326-3 0  9990
2 25344  86.4465 224.1848 0001880  81.0208 279.1209 14.50456928370192
IRIDIUM 82 [-]          
1 25467U 98051A   24115.57732848  .00020743  00000+0  10737-2 0  9999
2 25467  86.3719 311.1942 0132969  58.1174 303.2920 15.08638320360405
IRIDIUM 2 [-]           
1 25527U 98066A   24115.56206820  .00165872  00000+0  14006-2 0  9993
2 25527  85.5068 338.0632 0004295 133.9856 226.1767 15.69261442399467
